#cP2012 11 27  0  0  0.00000000     288 u+U   IGb08 FIT  TUM
## 1716 172800.00000000   300.00000000 56258 0.0000000000000
+    3   J01E11E12  0  0  0  0  0  0  0  0  0  0  0  0  0  0
+          0  0  0  0  0  0  0  0  0  0  0  0  0  0  0  0  0
+          0  0  0  0  0  0  0  0  0  0  0  0  0  0  0  0  0
+          0  0  0  0  0  0  0  0  0  0  0  0  0  0  0  0  0
+          0  0  0  0  0  0  0  0  0  0  0  0  0  0  0  0  0
++         6  1  0  0  0  0  0  0  0  0  0  0  0  0  0  0  0
++         0  0  0  0  0  0  0  0  0  0  0  0  0  0  0  0  0
++         0  0  0  0  0  0  0  0  0  0  0  0  0  0  0  0  0
++         0  0  0  0  0  0  0  0  0  0  0  0  0  0  0  0  0
++         0  0  0  0  0  0  0  0  0  0  0  0  0  0  0  0  0
%c E  cc GPS ccc cccc cccc cccc cccc ccccc ccccc ccccc ccccc
%c cc cc ccc ccc cccc cccc cccc cccc ccccc ccccc ccccc ccccc
%f  1.2500000  1.025000000  0.00000000000  0.000000000000000
%f  0.0000000  0.000000000  0.00000000000  0.000000000000000
%i    0    0    0    0      0      0      0      0         0
%i    0    0    0    0      0      0      0      0         0
/* Galileo+QZSS orbits for MGEX based on CONGO+MGEX data    
/* Technische Universitaet Muenchen (TUM)                   
/* Further information: www.iapg.bv.tum.de/mgex             
/* PCV:IGS08_1645 OL/AL:FES2004  NONE     YN ORB:CoN CLK:CoN
*  2012 11 27 10  0  0.00000000
PJ01 -27550.795719  31583.921178   9799.121448    351.446831
PE11  17407.373588   4632.364260  23484.097561    858.755633
PE12  13311.035772  22321.404630  14165.964086    601.507117
*  2012 11 27 10  5  0.00000000
PJ01 -27428.067598  31771.957071   9232.364380    351.446753
PE11  17518.407483   5326.822770  23253.193487    858.871700
PE12  13385.033402  22729.977500  13427.186064    601.532645
*  2012 11 27 10 10  0.00000000
PJ01 -27297.943912  31955.306063   8661.434849    351.446762
PE11  17643.758389   6011.288606  22990.117780    858.987825
PE12  13464.274689  23114.628973  12669.831931    601.558146
*  2012 11 27 10 15  0.00000000
PJ01 -27160.577790  32133.586180   8086.572869    351.446718
PE11  17782.848601   6684.528462  22695.234392    859.103942
PE12  13547.628783  23474.805818  11894.949221    601.583685
*  2012 11 27 10 20  0.00000000
PJ01 -27016.138603  32306.420756   7508.022412    351.446594
PE11  17935.034811   7345.345902  22368.951279    859.220136
PE12  13633.938483  23810.027012  11103.609755    601.609205
*  2012 11 27 10 25  0.00000000
PJ01 -26864.811786  32473.439166   6926.031358    351.446565
PE11  18099.610399   7992.585269  22011.719839    859.336246
PE12  13722.024487  24119.885245  10296.908153    601.634713
*  2012 11 27 10 30  0.00000000
PJ01 -26706.798637  32634.277559   6340.851470    351.446517
PE11  18275.807934   8625.135441  21624.034292    859.452388
PE12  13810.689709  24404.048156   9475.960331    601.660197
*  2012 11 27 10 35  0.00000000
PJ01 -26542.316083  32788.579582   5752.738340    351.446421
PE11  18462.801899   9241.933447  21206.430990    859.568521
PE12  13898.723661  24662.259329   8641.901944    601.685694
*  2012 11 27 10 40  0.00000000
PJ01 -26371.596404  32935.997106   5161.951341    351.446361
PE11  18659.711621   9841.967897  20759.487682    859.684650
PE12  13984.906894  24894.339012   7795.886820    601.711211
*  2012 11 27 10 45  0.00000000
PJ01 -26194.886944  33076.190933   4568.753578    351.446328
PE11  18865.604396  10424.282251  20283.822714    859.800791
PE12  14068.015462  25100.184578   6939.085368    601.736689
*  2012 11 27 10 50  0.00000000
PJ01 -26012.449768  33208.831518   3973.411819    351.446237
PE11  19079.498802  10987.977887  19780.094173    859.916904
PE12  14146.825416  25279.770720   6072.682943    601.762205
*  2012 11 27 10 55  0.00000000
PJ01 -25824.561307  33333.599652   3376.196439    351.446167
PE11  19300.368186  11532.216966  19248.998977    860.033021
PE12  14220.117289  25433.149379   5197.878221    601.787718
*  2012 11 27 11  0  0.00000000
PJ01 -25631.511957  33450.187160   2777.381342    351.446161
PE11  19527.144311  12056.225099  18691.271913    860.149175
PE12  14286.680580  25560.449403   4315.881523    601.813235
*  2012 11 27 11  5  0.00000000
PJ01 -25433.605660  33558.297566   2177.243895    351.446067
PE11  19758.721154  12559.293780  18107.684620    860.265344
PE12  14345.318192  25661.875946   3427.913151    601.838757
*  2012 11 27 11 10  0.00000000
PJ01 -25231.159443  33657.646761   1576.064833    351.445981
PE11  19993.958839  13040.782600  17499.044517    860.381497
PE12  14394.850848  25737.709600   2535.201683    601.864269
*  2012 11 27 11 15  0.00000000
PJ01 -25024.502928  33747.963648    974.128185    351.445964
PE11  20231.687694  13500.121210  16866.193699    860.497661
PE12  14434.121432  25788.305267   1638.982290    601.889814
*  2012 11 27 11 20  0.00000000
PJ01 -24813.977822  33828.990764    371.721168    351.445911
PE11  20470.712412  13936.811066  16210.007757    860.613791
PE12  14461.999252  25814.090779    740.495003    601.915345
*  2012 11 27 11 25  0.00000000
PJ01 -24599.937359  33900.484902   -230.865907    351.445771
PE11  20709.816313  14350.426898  15531.394573    860.729935
PE12  14477.384231  25815.565259   -159.016993    601.940847
*  2012 11 27 11 30  0.00000000
PJ01 -24382.745739  33962.217690   -833.339740    351.445738
PE11  20947.765671  14740.617940  14831.293067    860.846055
PE12  14479.210969  25793.297247  -1058.309082    601.966341
*  2012 11 27 11 35  0.00000000
PJ01 -24162.777506  34013.976173  -1435.404163    351.445720
PE11  21183.314123  15107.108901  14110.671891    860.962214
PE12  14466.452713  25747.922577  -1956.136952    601.991883
*  2012 11 27 11 40  0.00000000
PJ01 -23940.416930  34055.563350  -2036.760253    351.445605
PE11  21415.207111  15449.700666  13370.528093    861.078321
PE12  14438.125167  25680.142030  -2851.258304    602.017388
*  2012 11 27 11 45  0.00000000
PJ01 -23716.057340  34086.798705  -2637.106467    351.445544
PE11  21642.186359  15768.270745  12611.885731    861.194472
PE12  14393.290173  25590.718761  -3742.434595    602.042903
*  2012 11 27 11 50  0.00000000
PJ01 -23490.100438  34107.518704  -3236.138767    351.445530
PE11  21862.994379  16062.773437  11835.794465    861.310601
PE12  14331.059236  25480.475509  -4628.432731    602.068414
*  2012 11 27 11 55  0.00000000
PJ01 -23262.955592  34117.577266  -3833.550773    351.445438
PE11  22076.378959  16333.239754  11043.328087    861.426733
PE12  14250.596856  25350.291610  -5508.026800    602.093933
*  2012 11 27 12  0  0.00000000
PJ01 -23035.039103  34116.846204  -4429.033904    351.445367
PE11  22281.097651  16579.777055  10235.583052    861.542871
PE12  14151.123702  25201.099807  -6379.999755    602.119451
*  2012 11 27 12  5  0.00000000
PJ01 -22806.773439  34105.215645  -5022.277535    351.445320
PE11  22475.922218  16802.568424   9413.676957    861.658929
PE12  14031.919575  25033.882888  -7243.145092    602.144954
*  2012 11 27 12 10  0.00000000
PJ01 -22578.586461  34082.594408  -5612.969172    351.445226
PE11  22659.643054  17001.871795   8578.746967    861.775026
PE12  13892.326172  24849.670138  -8096.268563    602.170488
*  2012 11 27 12 15  0.00000000
PJ01 -22350.910622  34048.910358  -6200.794608    351.445145
PE11  22831.073514  17178.018801   7731.948279    861.891169
PE12  13731.749635  24649.533650  -8938.189780    602.196012
*  2012 11 27 12 20  0.00000000
PJ01 -22124.182146  34004.110720  -6785.438115    351.445137
PE11  22989.054193  17331.413378   6874.452493    862.007272
PE12  13549.662877  24434.584478  -9767.743885    602.221523
*  2012 11 27 12 25  0.00000000
PJ01 -21898.840191  33948.162369  -7366.582623    351.445059
PE11  23132.457099  17462.530116   6007.446005    862.123363
PE12  13345.607674  24205.968664 -10583.783146    602.247043
*  2012 11 27 12 30  0.00000000
PJ01 -21675.325991  33881.052068  -7943.909924    351.444929
PE11  23260.189725  17571.912368   5132.128348    862.239445
PE12  13119.196520  23964.863140 -11385.178557    602.272549
*  2012 11 27 12 35  0.00000000
PJ01 -21454.081990  33802.786685  -8517.100862    351.444914
PE11  23371.199003  17660.170116   4249.710549    862.355575
PE12  12870.114241  23712.471536 -12170.821394    602.298092
*  2012 11 27 12 40  0.00000000
PJ01 -21235.550963  33713.393360  -9085.835558    351.444885
PE11  23464.475115  17727.977611   3361.413432    862.471738
PE12  12598.119340  23450.019894 -12939.624758    602.323642
*  2012 11 27 12 45  0.00000000
PJ01 -21020.175108  33612.919643  -9649.793615    351.444752
PE11  23539.055170  17776.070787   2468.465942    862.587809
PE12  12303.045116  23178.752302 -13690.525069    602.349136
*  2012 11 27 12 50  0.00000000
PJ01 -20808.395160  33501.433580 -10208.654354    351.444711
PE11  23594.026703  17805.244470   1572.103434    862.703917
PE12  11984.800491  22899.926481 -14422.483550    602.374674
*  2012 11 27 12 55  0.00000000
PJ01 -20600.649461  33379.023772 -10762.097040    351.444697
PE11  23628.531023  17816.349369    673.565960    862.820082
PE12  11643.370599  22614.809317 -15134.487656    602.400207
*  2012 11 27 13  0  0.00000000
PJ01 -20397.373053  33245.799379 -11309.801122    351.444603
PE11  23641.766351  17810.288890   -225.903437    862.936229
PE12  11278.817096  22324.672376 -15825.552475    602.425712
*  2012 11 27 13  5  0.00000000
PJ01 -20198.996751  33101.890088 -11851.446488    351.444555
PE11  23632.990790  17788.015765  -1125.060463    863.052418
PE12  10891.278204  22030.787397 -16494.722098    602.451242
*  2012 11 27 13 10  0.00000000
PJ01 -20005.946219  32947.446044 -12386.713709    351.444508
PE11  23601.525064  17750.528496  -2022.661276    863.168563
PE12  10480.968506  21734.421797 -17141.070927    602.476793
*  2012 11 27 13 15  0.00000000
PJ01 -19818.641041  32782.637718 -12915.284309    351.444447
PE11  23546.755061  17698.867670  -2917.464227    863.284710
PE12  10048.178447  21436.834184 -17763.704971    602.502332
EOF
